     3.04           N: GNSS NAV DATA    M: Mixed            RINEX VERSION / TYPE
CONVBIN EX 2.5.0                        20260627 164937 UTC PGM / RUN BY / DATE 
format: RTCM 3                                              COMMENT             
log: C:\Users\jinyu\Desktop\540423494727\2026-06-08\1.rtcm3 COMMENT             
                                                            END OF HEADER       
C32 2026 06 07 15 00 00 -.911985174753D-03  .271427325060D-11  .000000000000D+00
      .100000000000D+01 -.204062500000D+02  .354300472323D-08 -.261976052322D+01
     -.117905437946D-05  .648070825264D-03  .390456989408D-05  .528263375664D+04
      .540000000000D+05 -.265426933765D-07  .292507719371D+01 -.414438545704D-07
      .988436764039D+00  .294468750000D+03 -.255508584535D+00 -.690600194842D-08
     -.432160858377D-10  .000000000000D+00  .106600000000D+04  .000000000000D+00
      .200000000000D+01  .000000000000D+00 -.820000000000D-08 -.820000000000D-08
      .612040000000D+05  .100000000000D+01
C07 2026 06 07 17 00 00 -.255432678387D-04 -.704325486822D-12  .000000000000D+00
      .100000000000D+01 -.294203125000D+03  .682528430049D-09 -.178777089865D+01
     -.948784872890D-05  .389178830665D-02  .245445407927D-04  .649351413536D+04
      .612000000000D+05  .437721610069D-07 -.168346012315D+01 -.211875885725D-06
      .963374073448D+00 -.505859375000D+03 -.253986186694D+01 -.172078596336D-08
      .771460705864D-10  .000000000000D+00  .106600000000D+04  .000000000000D+00
      .200000000000D+01  .000000000000D+00  .640000000000D-08  .640000000000D-08
      .612190000000D+05  .100000000000D+01
C01 2026 06 07 17 00 00 -.773230567575D-06 -.888178419700D-15  .000000000000D+00
      .100000000000D+01 -.206109375000D+03 -.788604277105D-09  .266608245637D+01
     -.646198168397D-05  .439948868006D-03  .141863711178D-04  .649355316544D+04
      .612000000000D+05 -.745058059692D-07  .131781798635D+01 -.707805156708D-07
      .962745144485D-01 -.435218750000D+03  .292191728627D+01  .167292682697D-08
     -.262153776900D-09  .000000000000D+00  .106600000000D+04  .000000000000D+00
      .200000000000D+01  .000000000000D+00  .450000000000D-08  .450000000000D-08
      .612340000000D+05  .100000000000D+01
C02 2026 06 07 17 00 00  .277301296592D-06  .133226762955D-13  .000000000000D+00
      .100000000000D+01  .158203125000D+03 -.236795577772D-09  .266431238840D+01
      .537652522326D-05  .257235602476D-03  .928854569793D-05  .649337672424D+04
      .612000000000D+05  .791624188423D-08  .177379948825D+01 -.461004674435D-07
      .110480841696D+00 -.283812500000D+03  .142379979758D+01  .132219793199D-08
     -.150006248362D-10  .000000000000D+00  .106600000000D+04  .000000000000D+00
      .200000000000D+01  .000000000000D+00  .473000000000D-07  .473000000000D-07
      .612490000000D+05  .100000000000D+01
C03 2026 06 07 17 00 00 -.350526534021D-06 -.639488462184D-13  .000000000000D+00
      .100000000000D+01  .224234375000D+03 -.116361989801D-08 -.252585562300D+01
      .753998756409D-05  .271166441962D-03  .133658759296D-04  .649344113731D+04
      .612000000000D+05  .456348061562D-07  .179154662877D+01  .325962901115D-07
      .929215515613D-01 -.415640625000D+03  .845703830571D+00  .203937066226D-08
      .121433629627D-10  .000000000000D+00  .106600000000D+04  .000000000000D+00
      .200000000000D+01  .000000000000D+00  .353000000000D-07  .353000000000D-07
      .612640000000D+05  .100000000000D+01
C08 2026 06 07 17 00 00 -.238646403886D-03 -.332711636020D-11  .000000000000D+00
      .100000000000D+01  .240312500000D+02  .143898851108D-08  .271198336902D+01
      .118510797620D-05  .449021696113D-02  .773696228862D-05  .649294018936D+04
      .612000000000D+05  .128056854010D-06  .446489059501D+00  .105705112219D-06
      .957300053675D+00  .396875000000D+01 -.292442038738D+01 -.227295182042D-08
     -.529664919813D-09  .000000000000D+00  .106600000000D+04  .000000000000D+00
      .200000000000D+01  .000000000000D+00  .900000000000D-09  .900000000000D-09
      .612790000000D+05  .100000000000D+01
C09 2026 06 07 17 00 00 -.506200245582D-03 -.204227745826D-10  .000000000000D+00
      .200000000000D+01  .526562500000D+02  .995041447470D-09 -.423430680787D+00
      .154273584485D-05  .560616969597D-02  .557443127036D-05  .649366366005D+04
      .612000000000D+05 -.926665961742D-07  .249187737859D+01 -.279396772385D-06
      .105112541651D+01  .884531250000D+02 -.225854060930D+01 -.213794619690D-08
      .334299639208D-09  .000000000000D+00  .106600000000D+04  .000000000000D+00
      .200000000000D+01  .000000000000D+00 -.103000000000D-07  .280000000000D-08
      .612940000000D+05  .200000000000D+01
C10 2026 06 07 17 00 00 -.782098737545D-03  .522160092942D-11  .000000000000D+00
      .100000000000D+01 -.208937500000D+03  .730744724165D-09 -.242472480862D+01
     -.668363645673D-05  .103571657091D-01  .246115960181D-04  .649383766747D+04
      .612000000000D+05 -.116415321827D-07 -.161018922307D+01 -.182073563337D-06
      .962459000635D+00 -.513328125000D+03 -.213710832191D+01 -.167542693111D-08
      .161078138122D-09  .000000000000D+00  .106600000000D+04  .000000000000D+00
      .200000000000D+01  .000000000000D+00 -.290000000000D-08  .480000000000D-08
      .613090000000D+05  .100000000000D+01
C12 2026 06 07 17 00 00  .634447671473D-03 -.493294294301D-11  .000000000000D+00
      .100000000000D+01 -.169218750000D+02  .376337104522D-08 -.297631885746D+01
     -.105099752545D-05  .249524135143D-03  .395625829697D-05  .528264598846D+04
      .612000000000D+05  .223517417908D-07  .291869016067D+01  .114087015390D-06
      .973254537307D+00  .284578125000D+03 -.682229183755D-01 -.689493005866D-08
     -.560737642688D-10  .000000000000D+00  .106600000000D+04  .000000000000D+00
      .200000000000D+01  .000000000000D+00  .800000000000D-09  .800000000000D-09
      .613240000000D+05  .100000000000D+01
C19 2026 06 07 17 00 00 -.938019133173D-03  .198596694645D-11  .000000000000D+00
      .100000000000D+01 -.191875000000D+02  .354371903869D-08 -.304328193273D+01
     -.113807618618D-05  .950529938564D-03  .466220080853D-05  .528263160896D+04
      .612000000000D+05 -.136904418468D-06  .293243163838D+01  .940635800362D-07
      .989617368187D+00  .280046875000D+03 -.426957599263D+00 -.684492797587D-08
     -.200008331150D-10  .000000000000D+00  .106600000000D+04  .000000000000D+00
      .200000000000D+01  .000000000000D+00  .930000000000D-08  .930000000000D-08
      .613390000000D+05  .100000000000D+01
C20 2026 06 07 17 00 00 -.902659725398D-03  .413091783003D-11  .000000000000D+00
      .100000000000D+01 -.202500000000D+02  .358764944000D-08 -.282636647154D+01
     -.114040449262D-05  .908344052732D-03  .400887802243D-05  .528263895607D+04
      .612000000000D+05 -.367872416973D-07  .293305877673D+01 -.162515789270D-06
      .989601650595D+00  .290937500000D+03  .740253488701D-01 -.694421782597D-08
      .500020827875D-11  .000000000000D+00  .106600000000D+04  .000000000000D+00
      .200000000000D+01  .000000000000D+00  .119000000000D-07  .119000000000D-07
      .613540000000D+05  .100000000000D+01
C22 2026 06 07 17 00 00  .455329543911D-03  .845545855555D-12  .000000000000D+00
      .100000000000D+01 -.233750000000D+02  .352121810144D-08  .146600587509D+01
     -.114692375064D-05  .861682347022D-03  .442843884230D-05  .528263463974D+04
      .612000000000D+05 -.270083546638D-07  .293355230678D+01  .875443220139D-07
      .988901285879D+00  .285484375000D+03  .549575388661D+00 -.682314135408D-08
      .435732435719D-10  .000000000000D+00  .106600000000D+04  .000000000000D+00
      .200000000000D+01  .000000000000D+00  .134000000000D-07  .134000000000D-07
      .613690000000D+05  .100000000000D+01
C36 2026 06 07 17 00 00  .274537131190D-03 -.366906505178D-11  .000000000000D+00
      .100000000000D+01  .517187500000D+01  .396623663825D-08  .184092682435D+01
      .369269400835D-06  .810413854197D-03  .970065593719D-05  .528265098190D+04
      .612000000000D+05  .186264514923D-07 -.127004981970D+01  .302679836750D-07
      .945017766526D+00  .156531250000D+03 -.110407341766D+01 -.678849705386D-08
      .237509893240D-09  .000000000000D+00  .106600000000D+04  .000000000000D+00
      .200000000000D+01  .000000000000D+00 -.207000000000D-07 -.207000000000D-07
      .613840000000D+05  .100000000000D+01
C37 2026 06 07 15 00 00 -.935282441787D-03  .799271759888D-11  .000000000000D+00
      .100000000000D+01  .102812500000D+02  .401338145916D-08  .180839429118D+01
      .522471964359D-06  .669506960548D-03  .989530235529D-05  .528267214203D+04
      .540000000000D+05  .274740159512D-07 -.127013699645D+01 -.745058059692D-08
      .945029658587D+00  .152015625000D+03 -.446560809782D+00 -.685207113055D-08
      .281797452281D-09  .000000000000D+00  .106600000000D+04  .000000000000D+00
      .200000000000D+01  .000000000000D+00 -.168000000000D-07 -.168000000000D-07
      .613990000000D+05  .100000000000D+01
C39 2026 06 07 17 00 00 -.897507648915D-03 -.218056683821D-10  .000000000000D+00
      .100000000000D+01  .172343750000D+02  .391659171319D-08 -.192280685834D-01
      .956933945417D-06  .518745160662D-03  .947108492255D-05  .528266435814D+04
      .612000000000D+05  .311993062496D-07 -.126310172101D+01 -.228174030781D-07
      .948966521819D+00  .163359375000D+03  .106269368260D-01 -.682421282728D-08
      .222866426138D-09  .000000000000D+00  .106600000000D+04  .000000000000D+00
      .200000000000D+01  .000000000000D+00  .193000000000D-07  .193000000000D-07
      .614140000000D+05  .100000000000D+01
C06 2026 06 07 16 00 00  .292859156616D-03  .181987758197D-11  .000000000000D+00
      .100000000000D+01  .788906250000D+02  .112826128233D-08 -.133389027000D+00
      .258581712842D-05  .243561761454D-02  .447453930974D-05  .649295167351D+04
      .576000000000D+05 -.684522092342D-07  .248515028439D+01 -.406987965107D-06
      .102439432198D+01  .108015625000D+03 -.238535642792D+01 -.227973781737D-08
      .318941856637D-09  .000000000000D+00  .106600000000D+04  .000000000000D+00
      .200000000000D+01  .000000000000D+00  .230000000000D-08  .230000000000D-08
      .614740000000D+05  .100000000000D+01
C27 2026 06 07 17 00 00  .642722938210D-03  .480859796426D-11  .000000000000D+00
      .100000000000D+01  .134375000000D+01  .418374569837D-08 -.133565644661D+01
      .140164047480D-06  .704745762050D-03  .840751454234D-05  .528265808105D+04
      .612000000000D+05  .372529029846D-07  .824455372641D+00 -.130385160446D-07
      .948409641571D+00  .189062500000D+03  .160674612688D+01 -.699064833142D-08
     -.261439461432D-09  .000000000000D+00  .106600000000D+04  .000000000000D+00
      .200000000000D+01  .000000000000D+00 -.430000000000D-08 -.430000000000D-08
      .616090000000D+05  .100000000000D+01
C30 2026 06 07 17 00 00  .464166048914D-03  .770494779090D-11  .000000000000D+00
      .100000000000D+01 -.500000000000D+01  .421481842125D-08 -.153026019369D+01
     -.159721821547D-06  .552290468477D-03  .761263072491D-05  .528264776230D+04
      .612000000000D+05  .284053385258D-07  .783634340624D+00 -.256113708019D-07
      .946057215172D+00  .200546875000D+03  .987372899290D+00 -.706100840506D-08
     -.262868092368D-09  .000000000000D+00  .106600000000D+04  .000000000000D+00
      .200000000000D+01  .000000000000D+00 -.970000000000D-08 -.970000000000D-08
      .618790000000D+05  .100000000000D+01
C11 2026 06 07 17 00 00 -.707780709490D-03 -.216697770838D-10  .000000000000D+00
      .100000000000D+01 -.514062500000D+01  .408338437506D-08 -.786436709423D+00
     -.244937837124D-06  .177447684109D-03  .772345811129D-05  .528264047050D+04
      .612000000000D+05  .186264514923D-07  .823166439409D+00 -.619329512119D-07
      .950951432476D+00  .199078125000D+03 -.209798382282D+00 -.699171980462D-08
     -.251796202608D-09  .000000000000D+00  .106600000000D+04  .000000000000D+00
      .200000000000D+01  .000000000000D+00  .290000000000D-08  .290000000000D-08
      .639640000000D+05  .100000000000D+01
